      3.02          NAVIGATION          G: (GPS)            RINEX VERSION / TYPE
StudioView          Spectracom          20180220 095119 UTC PGM / RUN BY / DATE
                                                            COMMENT
GPUT  0.0000000000e+00 0.000000000e+00      0    0        0 TIME SYSTEM CORR
GPSA   1.0245e-08  7.4506e-09 -5.9605e-08 -5.9605e-08       IONOSPHERIC CORR
GPSB   8.8064e+04  0.0000e+00 -1.9661e+05 -6.5536e+04       IONOSPHERIC CORR
    18     0     0     0                                    LEAP SECONDS
                                                            END OF HEADER
G20 2017 10 04 22 00 00 4.886994138360e-04 1.250555214940e-12 0.000000000000e+00
     4.900000000000e+01-1.046875000000e+02 5.327007723820e-09 8.788829296420e-01
    -5.386769771580e-06 4.590079537590e-03 9.894371032710e-06 5.153749031070e+03
     3.384000000000e+05-3.166496753690e-08 2.451869872390e+00-7.823109626770e-08
     9.275437381830e-01 1.734375000000e+02 1.681549631130e+00-8.559284836450e-09
    -4.657336738490e-10 1.000000000000e+00 1.969000000000e+03 0.000000000000e+00
     2.000000000000e+00 0.000000000000e+00-8.381903171540e-09 4.900000000000e+01
     3.312300000000e+05 0.000000000000e+00
G21 2017 10 04 22 00 00-4.739183932540e-04 3.183231456210e-12 0.000000000000e+00
     6.100000000000e+01 8.000000000000e+00 5.270576863840e-09-2.022362402530e+00
     8.065253496170e-07 2.400321152530e-02 1.206994056700e-06 5.153589181900e+03
     3.384000000000e+05 4.004687070850e-07 1.462797177860e+00 2.179294824600e-07
     9.407009088600e-01 3.367187500000e+02-1.636274148150e+00-8.424994035750e-09
     2.146517963380e-10 1.000000000000e+00 1.969000000000e+03 0.000000000000e+00
     2.000000000000e+00 0.000000000000e+00-9.778887033460e-09 6.100000000000e+01
     3.312300000000e+05 0.000000000000e+00
G22 2017 10 04 22 00 00-1.439559273420e-04-1.273292582480e-11 0.000000000000e+00
     5.900000000000e+01-8.259375000000e+01 5.438083761080e-09 1.231740691170e+00
    -4.338100552560e-06 7.216293481180e-03 1.026317477230e-05 5.153714662550e+03
     3.384000000000e+05-1.303851604460e-07 2.502640780810e+00-1.043081283570e-07
     9.242901513200e-01 1.663750000000e+02-1.672998441930e+00-8.557499597830e-09
    -3.575148788130e-10 1.000000000000e+00 1.969000000000e+03 0.000000000000e+00
     2.000000000000e+00 0.000000000000e+00-1.769512891770e-08 5.900000000000e+01
     3.312000000000e+05 0.000000000000e+00
G23 2017 10 04 22 00 00-2.178740687670e-04-2.273736754430e-13 0.000000000000e+00
     6.400000000000e+01 8.293750000000e+01 4.993065124060e-09 5.001663604280e-01
     4.490837454800e-06 1.186939235780e-02 1.018121838570e-05 5.153676633830e+03
     3.384000000000e+05-7.823109626770e-08-2.694342963000e+00 1.881271600720e-07
     9.444410417950e-01 1.746250000000e+02-2.420103874650e+00-8.448923360140e-09
     3.660866775510e-10 1.000000000000e+00 1.969000000000e+03 0.000000000000e+00
     2.000000000000e+00 0.000000000000e+00-2.048909664150e-08 6.400000000000e+01
     3.312000000000e+05 4.000000000000e+00
G24 2017 10 04 22 00 00-4.046782851220e-05-4.547473508860e-13 0.000000000000e+00
     5.300000000000e+01 4.343750000000e+00 5.597733387930e-09-2.449458244620e-02
     1.527369022370e-07 6.007330724970e-03 2.093613147740e-06 5.153666038510e+03
     3.384000000000e+05-1.862645149230e-09-1.672013525020e+00 7.823109626770e-08
     9.436340786270e-01 3.259375000000e+02 4.685126431120e-01-8.939657902830e-09
    -1.275053118640e-10 1.000000000000e+00 1.969000000000e+03 0.000000000000e+00
     2.800000000000e+00 0.000000000000e+00 2.793967723850e-09 5.300000000000e+01
     3.312300000000e+05 0.000000000000e+00
G25 2017 10 04 22 00 00-4.672477953140e-04-6.366462912410e-12 0.000000000000e+00
     1.520000000000e+02-7.915625000000e+01 3.900876954790e-09-1.993153148180e+00
    -3.986060619350e-06 6.580288638360e-03 1.135468482970e-05 5.153749208450e+03
     3.384000000000e+05 1.117587089540e-08-5.855755643270e-01-1.620501279830e-07
     9.763713515690e-01 1.698750000000e+02 8.188862775800e-01-7.664604950720e-09
    -5.021637550230e-10 1.000000000000e+00 1.969000000000e+03 0.000000000000e+00
     2.000000000000e+00 0.000000000000e+00 5.587935447690e-09 1.520000000000e+02
     3.359700000000e+05 0.000000000000e+00
G26 2017 10 04 22 00 00-4.068375565110e-04 1.159605744760e-11 0.000000000000e+00
     5.900000000000e+01-6.987500000000e+01 4.385896975930e-09-2.549018456990e+00
    -3.617256879810e-06 1.962518086660e-03 1.057796180250e-05 5.153780452730e+03
     3.384000000000e+05-3.166496753690e-08-6.033005723590e-01 3.539025783540e-08
     9.580395134140e-01 1.754062500000e+02-3.628500289030e-02-8.023905656450e-09
    -4.607334771130e-10 1.000000000000e+00 1.969000000000e+03 0.000000000000e+00
     2.000000000000e+00 0.000000000000e+00 7.450580596920e-09 5.900000000000e+01
     3.312000000000e+05 4.000000000000e+00
G27 2017 10 04 22 00 00 3.332635387780e-04 4.547473508860e-12 0.000000000000e+00
     6.000000000000e+01 7.593750000000e+01 3.971594004260e-09 1.905046993360e+00
     3.928318619730e-06 4.954260773960e-03 1.035444438460e-05 5.153676973340e+03
     3.384000000000e+05-8.381903171540e-08 4.533242414030e-01 4.656612873080e-08
     9.760872631180e-01 1.871562500000e+02 3.905142311020e-01-7.862827518330e-09
     4.378753821240e-10 1.000000000000e+00 1.969000000000e+03 0.000000000000e+00
     2.000000000000e+00 0.000000000000e+00 1.396983861920e-09 6.000000000000e+01
     3.312000000000e+05 4.000000000000e+00
G28 2017 10 04 22 00 00 6.512990221380e-04 3.183231456210e-12 0.000000000000e+00
     2.500000000000e+01-6.506250000000e+01 3.469430229980e-09 2.785159609510e+00
    -3.285706043240e-06 1.988056895790e-02 1.269020140170e-05 5.153665336610e+03
     3.384000000000e+05 2.514570951460e-07-5.054060238920e-01-6.519258022310e-08
     9.878976172840e-01 1.428437500000e+02-1.562489651190e+00-7.227801066930e-09
    -5.371652322310e-10 1.000000000000e+00 1.969000000000e+03 0.000000000000e+00
     2.000000000000e+00 0.000000000000e+00-1.117587089540e-08 2.500000000000e+01
     3.312000000000e+05 4.000000000000e+00
G29 2017 10 04 22 00 00 5.551064386960e-04-4.547473508860e-12 0.000000000000e+00
     1.470000000000e+02 7.715625000000e+01 3.891590605320e-09-3.137804440390e+00
     4.092231392860e-06 4.757577553390e-04 1.010484993460e-05 5.153558347700e+03
     3.384000000000e+05 3.725290298460e-09 5.163017602120e-01-3.725290298460e-09
     9.823740965100e-01 1.948750000000e+02 9.250396042520e-01-7.772109178460e-09
     5.557374560540e-10 1.000000000000e+00 1.969000000000e+03 0.000000000000e+00
     2.000000000000e+00 0.000000000000e+00-1.024454832080e-08 1.470000000000e+02
     3.312300000000e+05 0.000000000000e+00
G30 2017 10 04 22 00 00 1.367027871310e-04-2.273736754430e-12 0.000000000000e+00
     4.700000000000e+01-1.646875000000e+01 5.386652901510e-09-9.721486546250e-01
    -9.313225746160e-07 3.046699799600e-03 2.600252628330e-06 5.153614326480e+03
     3.384000000000e+05 5.587935447690e-09-1.579230052450e+00-4.470348358150e-08
     9.462575427850e-01 3.213125000000e+02-3.052390613670e+00-8.742507162650e-09
    -1.882221323250e-10 1.000000000000e+00 1.969000000000e+03 0.000000000000e+00
     2.000000000000e+00 0.000000000000e+00 3.725290298460e-09 4.700000000000e+01
     3.312300000000e+05 0.000000000000e+00
G31 2017 10 04 22 00 00 1.709749922160e-04-2.501110429880e-12 0.000000000000e+00
     1.520000000000e+02-1.221875000000e+01 4.969135769530e-09-1.179791399320e+00
    -6.817281246180e-07 8.552834275180e-03 2.779066562650e-06 5.153786829000e+03
     3.384000000000e+05 2.048909664150e-08-1.604755377710e+00-1.005828380590e-07
     9.652797714800e-01 3.290937500000e+02-2.360197668960e-01-8.564642328680e-09
    -3.607293283530e-11 1.000000000000e+00 1.969000000000e+03 0.000000000000e+00
     2.000000000000e+00 0.000000000000e+00-1.350417733190e-08 1.520000000000e+02
     3.312000000000e+05 0.000000000000e+00
G32 2017 10 04 22 00 00-5.090618506070e-04-4.888534022030e-12 0.000000000000e+00
     1.500000000000e+02 7.618750000000e+01 4.530545716360e-09 2.475535130970e+00
     3.993511199950e-06 1.482875202780e-03 1.036375761030e-05 5.153598695760e+03
     3.384000000000e+05-8.568167686460e-08-2.691095982670e+00-6.332993507380e-08
     9.580442137700e-01 1.785625000000e+02-2.555738578920e+00-8.036049159440e-09
     4.496615857440e-10 1.000000000000e+00 1.969000000000e+03 0.000000000000e+00
     4.000000000000e+00 0.000000000000e+00 9.313225746160e-10 1.500000000000e+02
     3.378000000000e+05 0.000000000000e+00
